{
  "norad_id": 63660,
  "name": "STARLINK-33810",
  "history": [
    {
      "epoch": "2026-03-28T19:23:43.597536Z",
      "apogee_km": 484.30296066817846,
      "perigee_km": 481.68639949066255,
      "latitude_deg": -1.5676004753204277e-05,
      "longitude_deg": 139.83144842053133,
      "height_km": 482.81617149882595,
      "semi_major_axis_km": 6861.13168007942,
      "eccentricity": 0.00019068,
      "inclination_deg": 42.9997,
      "raan_deg": 256.9864,
      "arg_perigee_deg": 268.0539,
      "mean_anomaly_deg": 92.0094,
      "mean_motion_rev_day": 15.27598173
    }
  ]
}