{"fetched_at":"2026-03-29T16:36:15Z","count":15609,"tles":[{"name":"STARLINK-33810","line1":"1 63660U 25083AC  26087.80814349  .00025755  00000+0  94164-3 0  9999","line2":"2 63660  42.9997 256.9864 0001906 268.0539  92.0094 15.27598173 53024","category":"Starlink"}]}